station_id,name,lat,lon,address,capacity,current
2,002 - Retiro 1234567,-34.5924,-58.3747,AV. Dr. José María Ramos Mejía 1300,40,0
3,003 - ADUANA,-34.6122,-58.3691,Av. Paseo Colón 380,28,1
4,004 - Plaza Roma,-34.603,-58.3689,Av. Corrientes 100,20,1
5,005 - Plaza Italia,-34.5805,-58.421,Av. Sarmiento 2601,42,1
6,006 - Parque Lezama,-34.6285,-58.3698,"Avenida Martin Garcia, 295",20,1
7,007 - OBELISCO,-34.6065,-58.3811,CARLOS PELEGRINI 215,24,1
8,008 - Congreso,-34.6094,-58.3893,"Cevallos, Virrey& Yrigoyen, Hipolito Av.",24,1
9,009 - Parque Las Heras,-34.5854,-58.4077,"2300 Diaz, Cnel. Av. & French",24,1
12,012 - Plaza Vicente Lopez,-34.5927,-58.3888,Parana & Juncal,16,1
13,013 - ONCE,-34.6101,-58.406,Av. Pueyrredon & Av. Rivadavia,30,1
14,014 - Pacifico,-34.5774,-58.4264,"Santa Fe Av. & Bullrich, Int. Av.",30,1
17,017 - Plaza Almagro,-34.6064,-58.4187,"441 Bulnes & Peron, Juan Domingo, Tte. General",20,1
21,021 - Parque Patricios,-34.6401,-58.4064,Iguazu & Uspallata,23,0
22,022 - Arenales,-34.5939,-58.3825,Cerrito & Arenales,20,1
24,024 - ALSINA,-34.6106,-58.3809,Adolfo Alsina& Bernardo De Irigoyen,18,1
25,025 - Plaza Guemes,-34.5894,-58.4161,"Salguero, Jeronimo & Mansilla, Lucio Norberto, General",30,1
26,026 - JUANA MANSO I,-34.6008,-58.3639,"Manso Juana & De La Barra, Emma",30,1
27,027 - Montevideo,-34.5991,-58.3901,Cordoba Av. & Montevideo,20,1
29,029 - Parque Centenario,-34.6079,-58.4336,Av. Patricias Argentinas & Estivao,29,1
32,032 - Catedral,-34.6067,-58.3737,Bartolomé Mitre & San Martín,18,1
33,033 - Facultad de Medicina,-34.5971,-58.399,Pres. José Evaristo Uriburu 987,20,1
35,035 - INGENIERO BUTTY,-34.5964,-58.3718,Ing. E. Butty 291,32,1
36,036 - MAIPÚ,-34.6011,-58.3745,Tucumán 536,12,1
38,038 - Plaza Libertad,-34.597,-58.3828,Cerrito 990 y Av. Marcelo T. De Alvear,20,1
41,041 - PARQUE PATRICIOS II,-34.6371,-58.4059,Av Caseros 3015,20,1
43,334 - CENTRO DE EXPOSICIONES,-34.584,-58.3899,2133 Figueroa Alcorta,28,0
44,044 - Ecoparque,-34.5755,-58.4139,"Av. Del Libertador, 3260",20,1
45,045 - Uruguay,-34.6019,-58.3867,561 Uruguay & Av. Tucuman,20,1
46,046 - Chile,-34.6164,-58.3744,Perú 718,18,1
48,034 - Colonia Express,-34.6236,-58.3632,Elvira Rawson de Dellepiane 150,16,1
49,049 - 33 Orientales,-34.6292,-58.4248,Constitución 4288,16,1
50,050 - Hospital Rivadavia,-34.5837,-58.4011,2516 Pereyra Lucena,20,1
54,054 - Acuña de Figueroa,-34.5982,-58.4221,Lavalle 4015,20,1
56,056 - Plaza Palermo Viejo,-34.5886,-58.426,Costa Rica & Armenia,20,1
57,057 - BELGRANO,-34.6132,-58.3706,Balcarce 482,12,1
58,058 - Ministro Carranza,-34.5753,-58.4347,Santa Fe Av. & Dorrego,20,1
59,018 - Independencia,-34.6177,-58.3806,Idependencia y Bernardo de Irigoyen,20,1
60,060 - 25 De Mayo,-34.6017,-58.3711,527 25 De Mayo,20,1
61,098 - BENITO JUAREZ,-34.6189,-58.5052, Benito Juarez 2231,11,0
63,063 - Reconquista,-34.5998,-58.3747,Viamonte 555,28,1
64,064 - RIOBAMBA,-34.5937,-58.3941,Riobamba 1264 & Juncal,20,1
65,065 - Julián Álvarez,-34.5873,-58.4158,3822 Guemes,20,1
66,066 - Billinghurst,-34.5945,-58.4139,3508 Carcova,20,1
68,105 - PARQUE SAAVEDRA,-34.5521,-58.4805,García del Río 3590,16,1
69,069 - Ecuador,-34.5961,-58.4046,"1226 Ecuador & Mansilla, Lucio Norberto, General",16,1
70,070 - ARAOZ,-34.5927,-58.4261,1413 Araoz & Gorriti CABA,24,1
71,071 - CERRITO,-34.6027,-58.3834,Libertad & lavalle,30,1
73,073 - Ruy Díaz de Guzmán,-34.6307,-58.3718,Avenida Martin Garcia y Ruy Díaz de Guzmán,20,1
74,074 - INSTITUTO LELOIR,-34.6044,-58.4345,Juana De Ibarbourou & Av Patricias Argentinas,30,1
75,075 - Plaza Primero de Mayo,-34.6123,-58.399,238 Pichincha,20,1
76,076 - Ayacucho,-34.6074,-58.3951,"Ayacucho &Peron, Juan Domingo, Tte. General",20,1
77,109 - ESTACION PUEYRREDON,-34.5811,-58.5015,Bolivia 5071,16,1
79,079 - AZUCENA VILLAFLOR,-34.6119,-58.3639,"Villaflor, Azucena & Dealessi, Pierina",30,1
80,080 - VALLE,-34.6246,-58.4341,Valle 486,12,1
82,082 - HOSPITAL ITALIANO,-34.6079,-58.4264,394 Rawson & Potosi,20,1
83,083 - Paraná,-34.6033,-58.3894,1590 Lavalle,28,1
85,085 - AGUERO,-34.5948,-58.4092,"Aguero & Mansilla, Lucio Norberto, General",20,1
86,086 - SAAVEDRA,-34.6213,-58.4017,1019 Saavedra,20,1
87,087 - Guayaquil,-34.6198,-58.4315,Guayaquil & Doblas,16,1
89,089 - Cabello,-34.5825,-58.4057,3082 Cabello,20,1
91,091 - Pasco,-34.6174,-58.3976,708 Pasco & Chile,24,1
92,092 - Salcedo,-34.6316,-58.4053,2908 Salcedo & Dean Funes,20,1
93,093 - CARLOS CALVO,-34.6208,-58.3945,Sarandi 1010,20,1
94,094 - GÚZMAN,-34.5915,-58.4497,Av Guzman 129 & Leiva,29,1
96,096 - Carlos Gardel,-34.6028,-58.4117,3302 Guardia Vieja & Aguero,16,1
98,037- Claudia Pía Baudracco,-34.6082,-58.3779,Esmeralda y Rivadavia,16,1
99,099 - Malabia,-34.5961,-58.4354,780 Malabia & Loyola,20,1
101,101 - Fitz Roy,-34.5892,-58.4424,Fitz Roy  1092 & Loyola,20,1
102,102 - ROSETI,-34.5851,-58.4493,ROSETI 390,20,1
104,104 - Federico Lacroze,-34.5876,-58.4552,Av. Guzman 1100 & Av. Corrientes,30,1
107,107 - HOSPITAL GARRAHAN,-34.6304,-58.3958,Brasil 2290,16,1
111,111 - MACACHA GUEMES,-34.6055,-58.3647,Macacha Guemes 350,30,1
112,112 - 9 de Julio,-34.6121,-58.3804,Bernardo Irigoyen 320,20,1
114,114 - TORRE MACRO,-34.594,-58.3714, Av. Eduardo Madero 1180,12,1
116,116 - HOSPITAL ALEMÁN,-34.5922,-58.4026,Beruti & Ecuador,12,1
117,117 - HUMBERTO 1°,-34.6196,-58.3732,Av. Carlos Calvo 513,20,1
118,118 - MEXICO,-34.617,-58.4027,Saavedra & Mexico,20,1
120,120 - HOSPITAL RAMOS MEJIA,-34.6175,-58.4093,3084 Agrelo,19,1
121,121 - YATAY,-34.6012,-58.4285,925 Yatay& Humahuaca,20,1
122,122 - COSTA RICA,-34.5916,-58.4198,COSTA RICA 4060,24,1
124,124 - UGARTECHE,-34.5805,-58.412,3050 Ugarteche,20,1
126,126 - Ministerio de Justicia y Seguridad,-34.6392,-58.3696,Olavarría 1201,16,1
128,128 - PARQUE DEL BAJO,-34.6052,-58.3688,Tte. Gral. Juan Domingo Perón 133,28,1
130,130 - RETIRO II,-34.5917,-58.3744,Av. Dr. José María Ramos Mejía 1350,40,1
131,131- HOSPITAL DE CLÍNICAS,-34.5984,-58.399,"Uriburu Jose E., Pres. & Paraguay",16,1
132,132 - CORRIENTES,-34.6034,-58.3728,Reconquista & Corrientes Av.,12,1
134,134 - SOLDADO DE LA FRONTERA,-34.6832,-58.469,Ana Díaz 5899,12,1
135,135 - MARCELO T. DE ALVEAR,-34.5976,-58.3784,Esmeralda & Paraguay,20,1
137,137 - AZOPARDO Y CHILE,-34.6156,-58.3675,AZOPARDO 700,24,1
138,138 - Hospital Britanico,-34.6354,-58.3877,153 Perdriel,12,1
144,144 - PUEYRREDÓN,-34.6019,-58.4061,684 Boulogne Sur Mer & Tucuman,20,1
146,146 - Hospital Francés,-34.6221,-58.4078,"3024 Calvo, Carlos",20,1
148,323 - Parque Avellaneda II,-34.6452,-58.4846,Av. Directorio 4295 ,16,1
149,149 - LIMA,-34.6153,-58.3814,México & Lima,16,1
150,150 - RODRIGO BUENO,-34.6188,-58.3555,Av. España 2200,36,1
152,152 - JULIETA LANTERI,-34.6182,-58.3596,"Vera Peñaloza, Rosario 599 & Lanteri Julieta",28,1
153,153 - JUAN MANUEL DE BLANES,-34.631,-58.3629,Av. Almirante Brown 653,20,0
155,155 - Parque José Evaristo Uriburu,-34.6451,-58.4175, Quilmes 491,12,1
156,156 - Plaza Alemania,-34.5776,-58.4075,2939 Cavia,20,1
158,158 - VILLARROEL,-34.5927,-58.4451,1321 Villarroel & Humboldt CABA,20,1
161,161 - Humahuaca,-34.6021,-58.4197,3912 Humahuaca,20,1
162,162 - LARREA Y BARTOLOMÉ MITRE,-34.609,-58.4019,80 Larrea,20,1
163,163 - ONCE II,-34.6096,-58.4064,Bartolome Mitre & Av. Puyrredon,30,1
164,164 - FACULTAD DE INGENIERIA,-34.6173,-58.3699,AV. PASEO COLÓN 811,20,1
165,165 - PLAZA MONSEÑOR MIGUEL DE ANDREA,-34.597,-58.4076,Dr Tomas Manuel De  Anchorena &  Jose A. Cabrera,12,1
166,166 - Cementerio de Recoleta,-34.5883,-58.3941,Vicente López 2100,12,1
167,275 - PLAZA 24 DE SEPTIEMBRE,-34.607,-58.4485,1355 San Martin Av.,24,1
168,168 - Estados Unidos,-34.6186,-58.3812,Estados Unidos & Lima,19,0
169,169 - FACULTAD DE PSICOLOGIA,-34.6131,-58.415,Av. Hipólito Yrigoyen 3417,20,0
171,171 - Pasteur,-34.6033,-58.3998,519 Pasteur,20,1
172,172 - BRASIL,-34.6254,-58.3711,BRASIL&DEFENSA,16,1
174,174 - MINISTERIO DE EDUCACION,-34.5972,-58.3918,Marcelo T. de Alvear & Rodriguez Peña,20,1
175,147 - Constitución,-34.6269,-58.3807,Avenida Juan de Garay 1050,54,1
176,067 - PARQUE SARMIENTO I,-34.5553,-58.4948,Av. Dr. Ricardo Balbín 4402,16,1
177,177 -PLANETARIO,-34.5682,-58.4121,Av Casares y Av Belisario Roldan,12,1
179,179 - CASA SAN,-34.6385,-58.3643,Olavarría 811,16,1
181,181 - BILLINGHURST Y MANSILLA,-34.5927,-58.412,"1520 Billinghurst & Mansilla, Lucio Norberto, General",20,1
182,182 - RAVIGNANI Y GUATEMALA,-34.578,-58.4352,"2185 Ravignani, Emilio, Dr. & Guatemala",20,1
183,183 - VIRREY CEVALLOS,-34.6157,-58.39,Mexico 1652,28,1
184,184 - Pedro Echague,-34.6306,-58.3913,Pedro Echague 1878 & Combate De Los Pozos,20,1
186,186 - MANZANA 66,-34.6136,-58.4064,2875 Moreno,20,1
187,261 - QUINTEROS LIDORO,-34.5526,-58.4509,"1483 Quinteros, Lidoro J. Av.",16,1
188,373 - Jorgelina De Simone,-34.6239,-58.3912,Cochabamba 1799,24,1
189,189 - POSADAS,-34.5887,-58.3852,1350 Posadas,20,1
190,190 - JUNCAL,-34.5851,-58.4111,"Juncal & Salguero, Jeronimo",20,1
191,191 - Rivadavia y 9 de Julio,-34.6079,-58.3808,Pellegrini Y Rivadavia Av.,16,1
193,193 - ARENALES Y AGUERO,-34.5909,-58.4062,Arenales y Aguero,20,1
194,194 - PERÓN Y ACUÑA DE FIGUEROA,-34.6061,-58.4225,3997 TTE. GENERAL JUAN DOMINGO PERON,16,1
196,196 - HOSPITAL ARGERICH,-34.6278,-58.366,750 Pi y Margall,20,1
197,197 - PLAZA CIUDAD DE UDINE,-34.621,-58.493,Mercedes 1480,19,0
199,199 - ESTADOS UNIDOS Y BOEDO,-34.6223,-58.416,3568 Estados Unidos & Boedo Av.,20,1
200,200 - AUSTRIA Y FRENCH,-34.5883,-58.4043,Austria 2075,16,1
202,001 - FACULTAD DE DERECHO,-34.5837,-58.3906,Av. Pres. Figueroa Alcorta 2120,30,1
203,108 - Usina del Arte,-34.6288,-58.3563,"Caffarena, Agustin R. & Don Pedro De Mendoza Av.",24,1
204,167 - Hipólito Yrigoyen,-34.6149,-58.4278,"4300 Yrigoyen, Hipolito Av.",24,1
206,159 - Fitz Roy & Gorriti,-34.585,-58.4373,Fitz Roy & Gorriti,16,1
207,123 - BASUALDO Y RODO,-34.6524,-58.4874,Guardia Nacional 1700,16,1
208,145 - RAVIGNANI,-34.5807,-58.4384,EMILIO RAVIGNANI 1802,20,1
210,335 - General Urquiza,-34.5722,-58.4113,Figueroa Alcorta & Sarmiento,20,1
212,129 - Velasco,-34.6003,-58.4349,J.Ramirez de Velasco 285,20,1
213,136 - Acevedo,-34.5997,-58.4427,Acevedo y Padilla,20,1
215,113 - Guatemala,-34.5859,-58.425,Guatemala 4773,20,1
216,059 - Coronel Diaz,-34.59,-58.4115,Guemes 3330 & Coronel Diaz,20,1
219,140 - Las Casas,-34.636,-58.4156,Metan 3661,23,1
220,097 - Avelino Diaz,-34.6351,-58.4276,Avelino Diaz&Doblas,15,1
222,160 - Godoy Cruz y Libertador,-34.5759,-58.4185,Av. Cerviño 4301,20,1
223,178 - José Marmol,-34.6234,-58.4249,803 José Marmol,16,1
227,188 - Aranguren,-34.6104,-58.4328,Dr. Juan Felipe Aranguren 131,20,1
228,010 - Madero UCA,-34.6165,-58.3657,"1600 Moreau De Justo, Alicia Av.",15,0
229,243 - PLAZOLETA CELEDONIO FLORES,-34.5816,-58.4515,Cordoba 6599,12,1
230,259 - PLAZA CASTELLI,-34.5678,-58.4645,Echeverria 3249,16,1
231,384 - PLAZA BENITO NAZAR,-34.6051,-58.446,VALENTIN VIRASORO 1349,16,1
232,252 - Tamborini,-34.56,-58.4791,Tamborini 3821,20,1
234,344 - UNIVERSIDAD DI TELLA,-34.548,-58.4469,Figueroa Alcorta 7350,20,1
235,281 - Villa Urquiza,-34.5737,-58.4869,Av. Triunvirato 4800,24,1
236,254 - Plaza Rafael Hernandez,-34.5622,-58.4552,Vuelta de Obligado 2004,16,1
237,302 - ESTACION VILLA LURO,-34.6367,-58.5014,Virgilio 90,16,1
239,391 - Plaza República de Ecuador,-34.5653,-58.4206,Av. Pres. Figueroa Alcorta 5201,20,1
241,348 - Villa del Parque,-34.6009,-58.4941,"Gutierrez, Ricardo 3105",12,1
242,103 - MALBA,-34.5769,-58.404,Av. Pres. Figueroa Alcorta 3451,32,1
245,248 - Husares,-34.5526,-58.4429,Husares 2201,16,1
247,282 - Tronador,-34.5839,-58.4665,Triunvirato Av. & Tronador,18,1
248,346 - Plaza Zapiola,-34.5735,-58.4746,2001 Donado,24,1
251,388 - Plaza Jose C Paz,-34.6417,-58.4025,Dr. Prof. Pedro Chutro 2881,12,1
252,331 - CALIFORNIA,-34.6471,-58.3743,California 1774 y General Hornos,23,1
253,383 - BOEDO Y VENEZUELA,-34.6164,-58.4171,BOEDO 339,16,1
254,276 - PRIMERA JUNTA,-34.6208,-58.4414,Av. Rivadavia 5408 ,16,1
255,374 - Puan,-34.6221,-58.4485,Yerbal 1290,20,1
257,264 - Plaza Marcos Sastre,-34.5708,-58.4812,Miller & Monroe,24,1
258,336 - La Pampa,-34.5655,-58.4553,La Pampa 2512 & Ciudad de la Paz,16,1
259,290 - Club Excursionistas,-34.5592,-58.4442,Migueletes 1782 (y La Pampa),16,1
260,371 - Paseo de las Americas,-34.5531,-58.4352,Av. Pres Figueroa Alcorta 6400,12,1
261,272 - Plaza Bruno Giordano,-34.6162,-58.4406,Bruno Giordano&Neuquen,16,1
262,349 - Plaza Saenz Peña,-34.6097,-58.4673,Andrés Lamas 1699,16,1
263,270 - PLAZA DEL ANGEL GRIS,-34.622,-58.4576,Calcena & Avellaneda Av.,20,1
264,283 - BALBIN II,-34.5559,-58.4812,Av. Dr. Ricardo Balbín y Crisólogo Larralde,16,1
265,361 - Plaza Don Segundo Sombra,-34.642,-58.4505,2347 Santander,28,1
267,315 - BEIRO Y SAN MARTÍN,-34.5976,-58.4985,3209 Av. Francisco Beiro,16,1
268,399 - GARCIA DEL RIO,-34.5503,-58.477,Av. García del Río 3182,36,1
269,260 - SAN MIGUEL DE GARICOITS,-34.5773,-58.4578,"Delgado & Loreto, Virrey",18,1
270,370 - Beauchef,-34.6401,-58.4303,1995 Beauchef,28,1
271,365 - Venancio Flores,-34.63,-58.4737,Venancio Flores 3170,20,1
273,223 - GAINZA,-34.6168,-58.4468,"494 Gainza, Martin De, Gral.",16,1
275,256 - PLAZA NORUEGA,-34.5623,-58.4593,Amenabar y Mendoza,20,1
277,292 - PLAZA BOLIVIA,-34.5635,-58.4361,Olleros Av. & Del Libertador Av.,17,1
278,233 - MONROE,-34.5641,-58.4698,2519 Superi,16,1
280,222 - SIMON BOLIVAR,-34.6335,-58.4494,"1701 Fernandez Moreno, Baldomero",28,1
281,350 - Plaza Irlanda,-34.6138,-58.4583,Av. Gaona 2200,24,1
284,229 - RIGLOS,-34.631,-58.4351,1019 Riglos,20,1
289,255 - BARRANCAS DE BELGRANO,-34.5598,-58.4483,"Sucre, Antonio Jose De, Mcal. Y Vertiz Virrey Av.",24,1
291,244 - UADE,-34.6172,-58.3816,Lima 750,16,1
299,221 - CULPINA,-34.6317,-58.4661,Culpina 121,19,1
301,309 - UTN II,-34.6604,-58.4676,Saraza y Mozart,20,1
302,340 - PLAZA NUEVA POMPEYA,-34.6518,-58.4158,3817 Traful,16,1
304,395 - Agronomia II,-34.5893,-58.4848,Av. Francisco Beiró 2120,20,1
307,341 - COMUNA 4,-34.65,-58.4248,AV PERITO MORENO 2881,12,1
308,251 - Solar de la Abadía,-34.5676,-58.4368,Maure 1819,28,1
309,298 - PLAZA DR. JUAN B. TERAN,-34.6214,-58.5198,Nogoya 5525,16,1
310,356 - ESTACIÓN LUGANO,-34.6795,-58.4742,Martiniano Leguizamón 4401,12,1
311,213 - Hospital Alvear,-34.5972,-58.4742,Av. Warnes 2626,16,1
316,205 - SAN MARTIN,-34.6056,-58.4535,1471 Cucha Cucha,28,1
318,285 - ESPINOSA,-34.6039,-58.4573,1785 Espinosa,20,1
322,289 - MONTAÑESES,-34.5513,-58.4542,2786 Montañeses,20,1
323,240 - ECHEVERRIA,-34.5654,-58.4593,1981 Vidal,24,1
324,280 - JURAMENTO,-34.5789,-58.4841,5209 Juramento,16,1
327,366 - VILLA OLÍMPICA,-34.6771,-58.4543,Escalada 4347,12,1
329,100 - Plaza Gurruchaga,-34.5931,-58.4352,1078 Gurruchaga,20,1
330,148 -La Paternal,-34.6008,-58.4721,PUNTA  ARENAS  1798,20,1
333,203 - Beiro,-34.6008,-58.5034,"Beiro 3572, CABA",20,1
335,206 - Galicia,-34.6159,-58.471,2502 Galicia,27,1
336,207 - PLAZA ARENALES,-34.5997,-58.5111,Nueva York 3949,28,1
340,359 - PLAZA BALCARCE,-34.5475,-58.4678,Jaramillo 2312,20,1
342,218 - Campana,-34.6168,-58.4843,1523 Campana,20,1
348,231 - Margariños Cervantes,-34.6105,-58.4744,2465 Margariños Cervantes,12,1
349,232 - Sucre y Martinez,-34.5704,-58.4663,Mcal. Antonio José de Sucre 3515,16,1
353,237 - Madero Office,-34.599,-58.3647,"367 Sanchez De Thompson, Mariquita",28,1
355,242 - Plazoleta Rafael del Riego,-34.5675,-58.4464,o´higins 1327,16,1
358,249 - Vidal,-34.5603,-58.4636,Vidal 2501,20,1
359,250 - Fleni,-34.5556,-58.4505,2292 Montañeses,20,1
361,258 - Plaza J.J. Paso,-34.5692,-58.4536,1399 Moldes,20,1
362,262 - Holmberg,-34.566,-58.4799,Holmberg 2819 y Nahuel Huapi,12,1
363,354 - José Martí,-34.6439,-58.4631,Eva Perón 3321,16,1
364,381 - Matienzo Y Arce,-34.5702,-58.4356,Teniente Benjamín Matienzo 1998,28,1
366,360 - Plaza Ramon Falcon,-34.6353,-58.4825,Cnel. Ramón L. Falcón 3992,12,1
367,287 - Belaustegui,-34.6167,-58.4777,Belaustegui 2910,16,1
368,378 - AGRONOMIA,-34.5981,-58.4821,4351 San Martin,12,1
369,304 - Navarro,-34.5922,-58.4918,Navarro 2625,16,1
370,305 - Plaza Martin Rodriguez,-34.591,-58.5003,3016 Pareja,20,1
371,269 - Plaza De La Misericordia,-34.6317,-58.4553,LAUTARO 400,12,1
372,322 - MARTÍ Y DIRECTORIO,-34.6364,-58.4701,"404 Marti, Jose",20,1
373,265 - Plaza Exodo Jujeño,-34.5823,-58.4811,Liverpool 2812,20,1
374,367 - Eva Perón,-34.6471,-58.4698,Primera Junta 3898,16,1
375,301 - Arregui Y Terrada,-34.6046,-58.4848,2793 Arregui,16,1
376,324 - Las Victorias,-34.6274,-58.4881,Av. Gaona 4660,24,1
378,215 - HOSPITAL ALVAREZ,-34.6231,-58.4683,Bolivia 683,20,1
379,390 - De Los Ombues,-34.5602,-58.4281,Av. de los Ombúes 300,20,1
381,274 - Gavilán,-34.6162,-58.4659,Gavilán 1200,16,1
382,204 - Biarritz,-34.6054,-58.4773,Biarritz 2403,16,1
383,263 - Plaza Echeverria,-34.5718,-58.4895,Av. Triunvirato 5100 y Nahuel Huapi 5150,20,1
384,267 - Plaza 25 De Agosto,-34.5795,-58.4618,14 de julio de 1194,18,1
385,268 - Plaza Aristóbulo Del Valle,-34.6062,-58.4931,Campana & Marcos Sastre  ,16,0
386,277 - Coghlan,-34.5654,-58.4759,2647 Estomba,8,1
387,278 - Donato Alvarez,-34.602,-58.4656,"1540 Garcia, Juan Agustin",16,1
392,297 - TRONADOR Y GARCÍA DEL RÍO,-34.5546,-58.4854,Tronador y Garcia del Rio,16,1
393,300 - Jose Artigas,-34.5903,-58.4669,Av. del Campo 1301,28,1
395,303 - Huaura,-34.5968,-58.4533,Huaura 1405 y Fitz Roy,16,1
400,313 - De Los Incas,-34.579,-58.4698,Av. de los Incas 4138,20,1
403,316 - Buenos Aires,-34.6447,-58.3939,Suarez 3150,31,1
407,330 - Parque Avellaneda,-34.6424,-58.4783,Remedios 3895,16,1
408,364 - CERRETTI Y MANUELA PEDRAZA,-34.5691,-58.5002,Ceretti 3407,16,1
412,372 - VILLA SOLDATI,-34.6604,-58.432,Carlos María Ramírez 2510,12,1
413,382 - MERCADO DE HACIENDA MATADEROS,-34.6618,-58.5013,Av. Lisandro de la Torre 2319,8,1
414,385 - Franklin,-34.6113,-58.45,Franklin 1100,16,1
416,257 - Plaza Francisco Ramirez,-34.5533,-58.4691,"2700 Pedraza, Manuela",27,1
417,127 - PLAZA LEONARDO N. ALEM,-34.5763,-58.5025,Cochrane 2407,20,1
418,345 - Plaza Mafalda,-34.5809,-58.4446,Conde & Concepción Arenal,16,1
420,375 - Ciudad Universitaria I,-34.5446,-58.4396,INTENDENTE GUIRALDES 2160 - PABELLÓN I,16,1
422,379 - PARQUE SARMIENTO II,-34.5645,-58.5029,Alfonsina Storni 3771,16,1
423,043 - PLAZA ALBERDI,-34.5593,-58.4878,Crisólogo Larralde 4544,12,1
424,387 - Luna,-34.6398,-58.3991,Luna 301,12,1
425,394 - Av. La Plata,-34.643,-58.4228,Av. La Plata 2400,20,1
426,396 - PLAZA ALBERTI,-34.5557,-58.4579,ARCOS 2665,20,1
427,397 - PARQUE SANTOJANNI,-34.6484,-58.5136,ACASSUSO 6373,16,1
428,225 - HOSPITAL TORNU,-34.5875,-58.474,1052 Avalos,20,1
429,201 - PLAZA EJERCITO DE LOS ANDES,-34.639,-58.5101,Av. Rivadavia y Albariño,16,1
431,362 - PARQUE DE LA MEMORIA,-34.5426,-58.4369,Av. Costanera Rafael Obligado 7200,20,1
432,187 - Jose Maria Moreno,-34.6199,-58.4358,141 Jose Maria Moreno,28,1
433,273 - Plazoleta Colombia,-34.6377,-58.3737,1619 Brandsen,24,1
434,247 - PLAZA LUCIO DEMARE,-34.5457,-58.4651,O`Higgins 3750,20,1
435,227 -Club Ciudad de Buenos Aires,-34.5445,-58.4595,Miguel Sanchez y Av Libertadores,24,1
436,253 - Plaza Colegiales,-34.5765,-58.4435,Tte. Benjamin Matienzo 2886,16,1
440,142 - ARMENIA,-34.5906,-58.4289,ARMENIA 1525 y GORRITI,16,1
441,016 - Legislatura,-34.6098,-58.3748,"169 Peru & Roca, Julio A., Presidente Diagonal Sur Av.",20,1
444,061 - Ministerio de Economia,-34.6089,-58.3707,"Balcarce e Yrigoyen, Hipolito Av.",23,0
448,393 - Barrio 31,-34.5821,-58.3788,Islas Galápagos 2800,32,1
449,352 - San Jose de Flores,-34.6288,-58.4633,Av. Rivadavia 6955,24,1
453,028 - Plaza de la Bandera,-34.6295,-58.4945,Av. Gaona 5181,20,1
454,176 - Plaza Derechos del hombre,-34.634,-58.5069,CORTINA 551,12,1
455,039 - Plaza Don Bosco,-34.6265,-58.508,Elpidio Gonzalez 5181,16,1
457,110 - PLAZA CD DE BANFF,-34.628,-58.5217,ROMA 786,16,1
458,219 - Parque Chacabuco II,-34.6364,-58.444,AV. ASAMBLEA 1400,28,0
460,133 - BEIRO Y SEGUROLA,-34.6075,-58.5119,Segurola 3194,16,1
461,106 - MOSCONI Y CONSTITUYENTES,-34.5809,-58.4936,CONSTITUYENTES 4710,20,1
464,377 - CIUDAD UNIVERSITARIA III,-34.541,-58.4441,Intendente Guiraldes 2160 - Pabellón III,28,1
465,192 - HOSPITAL SIRIO,-34.5905,-58.5071,Gabriela Mistral 3325 y Campana,12,1
466,333 - PARQUE DE LA ESTACIÓN,-34.6081,-58.4118,Dr. Tomás Manuel de Anchorena 170,20,1
467,328 - SARMIENTO II,-34.6055,-58.3959,Sarmiento 2037,12,1
468,084 - TEATRO PICADERO,-34.6042,-58.3937,Riobamba 403,8,1
469,062 - PARQUE ONEGA,-34.5934,-58.5138,Av. Gral.Mosconi 3780,16,1
471,173 - EL LIBERTADOR,-34.5947,-58.5033,Av. San Martín 6220,12,1
472,310 - FREIRE II,-34.5751,-58.4528,Tte. Gral Ramón Freire 1003,16,1
473,216 - EMILIO LAMARCA,-34.6134,-58.4934,EMILIO LAMARCA 2066,12,1
474,224 - BAIGORRIA,-34.6109,-58.503,Baigorria 4101,16,1
475,238 - PLAZA LAS TOSCANERAS,-34.6165,-58.526,Ramón Lista 5500 (y Moliere),12,1
476,279 - PLAZA MONTE CASTRO,-34.6183,-58.4985,Gualeguaychú 1900,12,1
477,311 - SEC. DE INNOVACION Y TRANSFORMACIÓN,-34.635,-58.3951,Av. Caseros 2309,12,1
478,015 - AMENABAR,-34.5721,-58.4475,Teodoro García 2613,12,1
479,347 - CARABOBO,-34.6263,-58.4553,Pumacahua 9,24,1
480,353 - PLAZA VÉLEZ SARSFIELD,-34.6293,-58.4836,Chivilcoy 400,12,1
481,369 - PLAZA LARRAZABAL,-34.643,-58.5127,AV. LARRAZABAL 380,16,1
482,376 - PASEO DE LA COSTANERA,-34.5505,-58.43,Av. Costanera Rafael Obligado 6200,12,1
483,175 - PLAZA MACKENNA,-34.5437,-58.4771,CRAMER 4500,12,1
484,295 - SUPERÍ,-34.5555,-58.4768,NUÑEZ 3486,12,1
486,220 - PLAZA FELIX LIMA,-34.5421,-58.4706,RAMALLO 2200,12,1
487,239 - AVENIDA CRAMER,-34.5581,-58.4673,Av. Cramer 2900,12,1
488,234 - AVENIDA TRIUNVIRATO,-34.5657,-58.4952,Av. Triunvirato 5752,12,1
489,288 - SECRETARÍA DE DEPORTES,-34.5476,-58.4566,AV LIBERTADOR 7100,16,1
490,245 - COSTANERA NORTE,-34.5648,-58.402,AV. Costanera Rafael del Obligado 1700,16,1
491,266 - PLAZA SABATTINI,-34.6123,-58.4433,COLPAYO 699,8,1
492,325 - MEDRANO,-34.6097,-58.4216,3905 Bartolomé Mitre,20,1
493,208 - NICASIO OROÑO,-34.5967,-58.4594,Nicasio Oroño 2598,8,1
494,314 - ALLENDE,-34.6148,-58.5117,Allende 2794,12,1
496,052 - CAMPANA II,-34.5832,-58.5132,Cochrane 3298 (y Campana),12,1
497,307 - CERRETTI,-34.5744,-58.4962,Ceretti 2892,12,1
498,055 - HABANA,-34.5866,-58.495,Gral. José Gervasio Artigas 4298 (y Habana),12,1
499,286 - FILOSOFIA Y LETRAS,-34.6286,-58.4468,José Bonifacio 1407,16,1
500,235 - COMUNA 13,-34.5532,-58.4642,Ibera 2377,16,1
501,020 - GRECIA,-34.5492,-58.4619,Grecia 3290,16,1
502,296 - SAN ISIDRO LABRADOR,-34.5407,-58.4752,Av. San Isidro Labrador 4850,16,1
503,212 - TRES ARROYOS,-34.6072,-58.4564,Paysandú 1491,20,1
504,214 - MORÓN,-34.6247,-58.4752,Morón 3089,12,1
505,337 - AV. J. B. JUSTO,-34.6226,-58.482,Emilio Lamarca 915 (y Av. Juan B. Justo),16,1
506,040 - PARQUE SALGUERO,-34.5694,-58.3994,Av. Costa Salguero 1222,20,1
507,271 - VILLA SOLDATI II,-34.6732,-58.4553,23 de junio 4249,24,1
508,170 - RAFAELA,-34.6392,-58.4948,Rafaela 4811,12,1
509,386 - VELEZ SARSFIELD,-34.6336,-58.4898,Av. Carrasco 214,12,1
511,284 - AV. FOREST,-34.5754,-58.4627,Delgado 1569 (y Av. Forest),16,1
512,195 - PARQUE CHAS,-34.5816,-58.4751,Av. De los Incas 4535,19,1
513,308 - SAN MARTIN II,-34.5971,-58.4907,Av. San Martín 5129,12,1
515,294 - PLAZOLETA RÍO DE LA PLATA,-34.5742,-58.4147,Av. Sarmiento 500,15,1
516,368 - PLAZA DE LA SHOÁ,-34.571,-58.4233,Av. Del Libertador 3899,20,1
517,332 - PACÍFICO II,-34.5745,-58.4248,Av. Int. Bullrich 300,16,1
518,329 - LAS CAÑITAS,-34.5739,-58.4318,Clay 2818,12,1
519,053 - AV. DEL LIBERTADOR ,-34.5929,-58.3754,Av. Del Libertador 100,20,1
520,180 - PARQUE OLIMPICO,-34.6726,-58.4455,Av. Coronel Roca 5252 (dentro del Parque Olímpico). ,20,1
521,226 - AV. WARNES,-34.5965,-58.4664,Av. Warnes 2150,16,1
522,119 - PLAZOLETA BENEDIT,-34.6022,-58.4425,Av. Warnes y Av. R. Scalabrini Ortiz,16,1
524,338 - AV. CABILDO,-34.5579,-58.4607,Av. Cabildo 2586,12,1
525,317 - ESCUELA RAGGIO,-34.5367,-58.4668,Av. Libertador 8620 (y Pico),16,1
526,088 - NUÑEZ ,-34.5416,-58.4634,Comodoro Martín Rivadavia 1630,12,1
527,068 - AV. CORDOBA,-34.5887,-58.4384,Av. Cordoba 5403,12,1
528,042 - Skate Park Villa Luro,-34.6367,-58.4953, Av. Rivadavia 9301,16,1
529,011 - RIO DE JANEIRO,-34.6133,-58.4301,Río de Janeiro 205,18,1
530,031 - PARQUE RIVADAVIA,-34.6165,-58.4324,Av Rivadavia 4950,20,1
531,048 - JOSE AMALFITANI,-34.6336,-58.5213,Av. Juan Bautista Justo 6383,20,1
532,072 - INSTITUTO POLITÉCNICO MODELO,-34.573,-58.5039,Av Constituyentes 5880,20,1
533,077 - CRISOLOGO LARRALDE,-34.5612,-58.492,Galván 3601,20,1
534,081 - PARQUE DE LAS CIENCIAS,-34.583,-58.43,Soler 5300 ,24,1
535,090 - HONORIO PUEYRREDON,-34.6025,-58.4497,Honorio Pueyrredón 1653,20,1
536,019 - PLAZA  SAN MARTIN,-34.5955,-58.3775,Av. Santa Fe 716,20,1
537,389 - Av. ELCANO,-34.5708,-58.4581,Av. ELCANO 3000,12,1
538,047 - PARQUE DE LA INNOVACIÓN,-34.5451,-58.4514,Av. G. Udaondo 1146,15,0
539,115 - JUAN DE GARAY,-34.627,-58.3806,Av. Juan de Garay 1135,20,1
540,185 - JORGE NEWBERY,-34.5577,-58.4103,Av. Costanera Rafael Obligado,18,1
541,198 - AEROPARQUE,-34.5557,-58.4132,Av. Costanera Rafael Obligado,12,1
542,202 - VICTOR MANUEL ACUÑA,-34.5539,-58.4195,Av. Costanera Rafael Obligado,16,1
543,139 - CASA ROSADA,-34.6075,-58.3667,Av. Alicia Moreau de Justo 861,16,1
544,078 - TEATRO COLÓN,-34.6006,-58.3824,Cerrito 698,23,1
545,141 - DEL BARCO CENTENERA,-34.6278,-58.4403,Del Barco Centenera 741,20,1
546,143 - COMUNA 7,-34.6313,-58.4418,Emilio Mitre 860,16,1
547,023 - ALMAGRO,-34.6202,-58.4221,México 4000,20,1
548,051 - PLAZA SUDAMERICA,-34.6878,-58.4752,Av. Piedrabuena 4901,20,1
549,095 - EMILIO CASTRO,-34.6497,-58.5108,Av. Emilio Castro 6301,16,1
550,154 - LINIERS,-34.6348,-58.5271,Av. Juan Bautista Justo 9710,20,1
551,157 - LEGUIZAMON,-34.6448,-58.5189,Martiniano Leguizamón 599,20,1
552,209 - DEVOTO,-34.6029,-58.5126,Ricardo Gutierrez 4224,24,1
553,210 - JOSE LEON CABEZON,-34.5802,-58.5009,José León Cabezón 2516,16,1
554,211 - BLANCO ENCALADA,-34.5699,-58.4767,Blanco Encalada 4118,16,1
556,230 - AREVALO,-34.5836,-58.4436,Arévalo 1408,32,1
2,002 - Retiro I,-34.5924,-58.3747,AV. Dr. José María Ramos Mejía 1300,40,0
2,002 - Retiro I,-34.5924,-58.3747,AV. Dr. José María Ramos Mejía 1300,40,0
2,002 - Retiro I,-34.5924,-58.3747,AV. Dr. José María Ramos Mejía 1300,40,0
21,021 - Parque Patricios,-34.6401,-58.4064,Iguazu & Uspallata,24,0
43,334 - CENTRO DE EXPOSICIONES,-34.584,-58.3899,2133 Figueroa Alcorta,27,0
61,098 - BENITO JUAREZ,-34.6189,-58.5052, Benito Juarez 2231,12,0
153,153 - JUAN MANUEL DE BLANES,-34.631,-58.3629,Av. Almirante Brown 653,19,0
168,168 - Estados Unidos,-34.6186,-58.3812,Estados Unidos & Lima,20,0
169,169 - FACULTAD DE PSICOLOGIA,-34.6131,-58.415,Av. Hipólito Yrigoyen 3417,19,0
197,197 - PLAZA CIUDAD DE UDINE,-34.621,-58.493,Mercedes 1480,20,0
228,010 - Madero UCA,-34.6165,-58.3657,"1600 Moreau De Justo, Alicia Av.",16,0
385,268 - Plaza Aristóbulo Del Valle,-34.6062,-58.4931,Campana & Marcos Sastre  ,15,0
444,061 - Ministerio de Economia,-34.6089,-58.3707,"Balcarce e Yrigoyen, Hipolito Av.",24,0
458,219 - Parque Chacabuco II,-34.6364,-58.444,AV. ASAMBLEA 1400,27,0
538,047 - PARQUE DE LA INNOVACIÓN,-34.5451,-58.4514,Av. G. Udaondo 1146,16,0
2,002 - Retiro I,-34.5924,-58.3747,AV. Dr. José María Ramos Mejía 1300,40,0
21,021 - Parque Patricios,-34.6401,-58.4064,Iguazu & Uspallata,24,0
43,334 - CENTRO DE EXPOSICIONES,-34.584,-58.3899,2133 Figueroa Alcorta,27,0
61,098 - BENITO JUAREZ,-34.6189,-58.5052, Benito Juarez 2231,12,0
153,153 - JUAN MANUEL DE BLANES,-34.631,-58.3629,Av. Almirante Brown 653,19,0
168,168 - Estados Unidos,-34.6186,-58.3812,Estados Unidos & Lima,20,0
169,169 - FACULTAD DE PSICOLOGIA,-34.6131,-58.415,Av. Hipólito Yrigoyen 3417,19,0
197,197 - PLAZA CIUDAD DE UDINE,-34.621,-58.493,Mercedes 1480,20,0
228,010 - Madero UCA,-34.6165,-58.3657,"1600 Moreau De Justo, Alicia Av.",16,0
385,268 - Plaza Aristóbulo Del Valle,-34.6062,-58.4931,Campana & Marcos Sastre  ,15,0
444,061 - Ministerio de Economia,-34.6089,-58.3707,"Balcarce e Yrigoyen, Hipolito Av.",24,0
458,219 - Parque Chacabuco II,-34.6364,-58.444,AV. ASAMBLEA 1400,27,0
538,047 - PARQUE DE LA INNOVACIÓN,-34.5451,-58.4514,Av. G. Udaondo 1146,16,0
2,002 - Retiro I,-34.5924,-58.3747,AV. Dr. José María Ramos Mejía 1300,40,0
21,021 - Parque Patricios,-34.6401,-58.4064,Iguazu & Uspallata,24,0
43,334 - CENTRO DE EXPOSICIONES,-34.584,-58.3899,2133 Figueroa Alcorta,27,0
61,098 - BENITO JUAREZ,-34.6189,-58.5052, Benito Juarez 2231,12,0
153,153 - JUAN MANUEL DE BLANES,-34.631,-58.3629,Av. Almirante Brown 653,19,0
168,168 - Estados Unidos,-34.6186,-58.3812,Estados Unidos & Lima,20,0
169,169 - FACULTAD DE PSICOLOGIA,-34.6131,-58.415,Av. Hipólito Yrigoyen 3417,19,0
197,197 - PLAZA CIUDAD DE UDINE,-34.621,-58.493,Mercedes 1480,20,0
228,010 - Madero UCA,-34.6165,-58.3657,"1600 Moreau De Justo, Alicia Av.",16,0
385,268 - Plaza Aristóbulo Del Valle,-34.6062,-58.4931,Campana & Marcos Sastre  ,15,0
444,061 - Ministerio de Economia,-34.6089,-58.3707,"Balcarce e Yrigoyen, Hipolito Av.",24,0
458,219 - Parque Chacabuco II,-34.6364,-58.444,AV. ASAMBLEA 1400,27,0
538,047 - PARQUE DE LA INNOVACIÓN,-34.5451,-58.4514,Av. G. Udaondo 1146,16,0
2,002 - Retiro I,-34.5924,-58.3747,AV. Dr. José María Ramos Mejía 1300,40,0
21,021 - Parque Patricios,-34.6401,-58.4064,Iguazu & Uspallata,24,0
43,334 - CENTRO DE EXPOSICIONES,-34.584,-58.3899,2133 Figueroa Alcorta,27,0
61,098 - BENITO JUAREZ,-34.6189,-58.5052, Benito Juarez 2231,12,0
153,153 - JUAN MANUEL DE BLANES,-34.631,-58.3629,Av. Almirante Brown 653,19,0
168,168 - Estados Unidos,-34.6186,-58.3812,Estados Unidos & Lima,20,0
169,169 - FACULTAD DE PSICOLOGIA,-34.6131,-58.415,Av. Hipólito Yrigoyen 3417,19,0
197,197 - PLAZA CIUDAD DE UDINE,-34.621,-58.493,Mercedes 1480,20,0
228,010 - Madero UCA,-34.6165,-58.3657,"1600 Moreau De Justo, Alicia Av.",16,0
385,268 - Plaza Aristóbulo Del Valle,-34.6062,-58.4931,Campana & Marcos Sastre  ,15,0
444,061 - Ministerio de Economia,-34.6089,-58.3707,"Balcarce e Yrigoyen, Hipolito Av.",24,0
458,219 - Parque Chacabuco II,-34.6364,-58.444,AV. ASAMBLEA 1400,27,0
538,047 - PARQUE DE LA INNOVACIÓN,-34.5451,-58.4514,Av. G. Udaondo 1146,16,0
2,002 - Retiro I,-34.5924,-58.3747,AV. Dr. José María Ramos Mejía 1300,40,0
21,021 - Parque Patricios,-34.6401,-58.4064,Iguazu & Uspallata,24,0
43,334 - CENTRO DE EXPOSICIONES,-34.584,-58.3899,2133 Figueroa Alcorta,27,0
61,098 - BENITO JUAREZ,-34.6189,-58.5052, Benito Juarez 2231,12,0
153,153 - JUAN MANUEL DE BLANES,-34.631,-58.3629,Av. Almirante Brown 653,19,0
168,168 - Estados Unidos,-34.6186,-58.3812,Estados Unidos & Lima,20,0
169,169 - FACULTAD DE PSICOLOGIA,-34.6131,-58.415,Av. Hipólito Yrigoyen 3417,19,0
197,197 - PLAZA CIUDAD DE UDINE,-34.621,-58.493,Mercedes 1480,20,0
228,010 - Madero UCA,-34.6165,-58.3657,"1600 Moreau De Justo, Alicia Av.",16,0
385,268 - Plaza Aristóbulo Del Valle,-34.6062,-58.4931,Campana & Marcos Sastre  ,15,0
444,061 - Ministerio de Economia,-34.6089,-58.3707,"Balcarce e Yrigoyen, Hipolito Av.",24,0
458,219 - Parque Chacabuco II,-34.6364,-58.444,AV. ASAMBLEA 1400,27,0
538,047 - PARQUE DE LA INNOVACIÓN,-34.5451,-58.4514,Av. G. Udaondo 1146,16,0
2,002 - Retiro I,-34.5924,-58.3747,AV. Dr. José María Ramos Mejía 1300,40,0
21,021 - Parque Patricios,-34.6401,-58.4064,Iguazu & Uspallata,24,0
43,334 - CENTRO DE EXPOSICIONES,-34.584,-58.3899,2133 Figueroa Alcorta,27,0
61,098 - BENITO JUAREZ,-34.6189,-58.5052, Benito Juarez 2231,12,0
153,153 - JUAN MANUEL DE BLANES,-34.631,-58.3629,Av. Almirante Brown 653,19,0
168,168 - Estados Unidos,-34.6186,-58.3812,Estados Unidos & Lima,20,0
169,169 - FACULTAD DE PSICOLOGIA,-34.6131,-58.415,Av. Hipólito Yrigoyen 3417,19,0
197,197 - PLAZA CIUDAD DE UDINE,-34.621,-58.493,Mercedes 1480,20,0
228,010 - Madero UCA,-34.6165,-58.3657,"1600 Moreau De Justo, Alicia Av.",16,0
385,268 - Plaza Aristóbulo Del Valle,-34.6062,-58.4931,Campana & Marcos Sastre  ,15,0
444,061 - Ministerio de Economia,-34.6089,-58.3707,"Balcarce e Yrigoyen, Hipolito Av.",24,0
458,219 - Parque Chacabuco II,-34.6364,-58.444,AV. ASAMBLEA 1400,27,0
538,047 - PARQUE DE LA INNOVACIÓN,-34.5451,-58.4514,Av. G. Udaondo 1146,16,0
2,002 - Retiro I,-34.5924,-58.3747,AV. Dr. José María Ramos Mejía 1300,40,0
21,021 - Parque Patricios,-34.6401,-58.4064,Iguazu & Uspallata,24,0
43,334 - CENTRO DE EXPOSICIONES,-34.584,-58.3899,2133 Figueroa Alcorta,27,0
61,098 - BENITO JUAREZ,-34.6189,-58.5052, Benito Juarez 2231,12,0
153,153 - JUAN MANUEL DE BLANES,-34.631,-58.3629,Av. Almirante Brown 653,19,0
168,168 - Estados Unidos,-34.6186,-58.3812,Estados Unidos & Lima,20,0
169,169 - FACULTAD DE PSICOLOGIA,-34.6131,-58.415,Av. Hipólito Yrigoyen 3417,19,0
197,197 - PLAZA CIUDAD DE UDINE,-34.621,-58.493,Mercedes 1480,20,0
228,010 - Madero UCA,-34.6165,-58.3657,"1600 Moreau De Justo, Alicia Av.",16,0
385,268 - Plaza Aristóbulo Del Valle,-34.6062,-58.4931,Campana & Marcos Sastre  ,15,0
444,061 - Ministerio de Economia,-34.6089,-58.3707,"Balcarce e Yrigoyen, Hipolito Av.",24,0
458,219 - Parque Chacabuco II,-34.6364,-58.444,AV. ASAMBLEA 1400,27,0
538,047 - PARQUE DE LA INNOVACIÓN,-34.5451,-58.4514,Av. G. Udaondo 1146,16,0
2,002 - Retiro I,-34.5924,-58.3747,AV. Dr. José María Ramos Mejía 1300,40,0
21,021 - Parque Patricios,-34.6401,-58.4064,Iguazu & Uspallata,24,0
43,334 - CENTRO DE EXPOSICIONES,-34.584,-58.3899,2133 Figueroa Alcorta,27,0
61,098 - BENITO JUAREZ,-34.6189,-58.5052, Benito Juarez 2231,12,0
153,153 - JUAN MANUEL DE BLANES,-34.631,-58.3629,Av. Almirante Brown 653,19,0
168,168 - Estados Unidos,-34.6186,-58.3812,Estados Unidos & Lima,20,0
169,169 - FACULTAD DE PSICOLOGIA,-34.6131,-58.415,Av. Hipólito Yrigoyen 3417,19,0
197,197 - PLAZA CIUDAD DE UDINE,-34.621,-58.493,Mercedes 1480,20,0
228,010 - Madero UCA,-34.6165,-58.3657,"1600 Moreau De Justo, Alicia Av.",16,0
385,268 - Plaza Aristóbulo Del Valle,-34.6062,-58.4931,Campana & Marcos Sastre  ,15,0
444,061 - Ministerio de Economia,-34.6089,-58.3707,"Balcarce e Yrigoyen, Hipolito Av.",24,0
458,219 - Parque Chacabuco II,-34.6364,-58.444,AV. ASAMBLEA 1400,27,0
538,047 - PARQUE DE LA INNOVACIÓN,-34.5451,-58.4514,Av. G. Udaondo 1146,16,0
2,002 - Retiro I,-34.5924,-58.3747,AV. Dr. José María Ramos Mejía 1300,40,0
21,021 - Parque Patricios,-34.6401,-58.4064,Iguazu & Uspallata,24,0
43,334 - CENTRO DE EXPOSICIONES,-34.584,-58.3899,2133 Figueroa Alcorta,27,0
61,098 - BENITO JUAREZ,-34.6189,-58.5052, Benito Juarez 2231,12,0
153,153 - JUAN MANUEL DE BLANES,-34.631,-58.3629,Av. Almirante Brown 653,19,0
168,168 - Estados Unidos,-34.6186,-58.3812,Estados Unidos & Lima,20,0
169,169 - FACULTAD DE PSICOLOGIA,-34.6131,-58.415,Av. Hipólito Yrigoyen 3417,19,0
197,197 - PLAZA CIUDAD DE UDINE,-34.621,-58.493,Mercedes 1480,20,0
228,010 - Madero UCA,-34.6165,-58.3657,"1600 Moreau De Justo, Alicia Av.",16,0
385,268 - Plaza Aristóbulo Del Valle,-34.6062,-58.4931,Campana & Marcos Sastre  ,15,0
444,061 - Ministerio de Economia,-34.6089,-58.3707,"Balcarce e Yrigoyen, Hipolito Av.",24,0
458,219 - Parque Chacabuco II,-34.6364,-58.444,AV. ASAMBLEA 1400,27,0
538,047 - PARQUE DE LA INNOVACIÓN,-34.5451,-58.4514,Av. G. Udaondo 1146,16,0
2,002 - Retiro I,-34.5924,-58.3747,AV. Dr. José María Ramos Mejía 1300,40,0
21,021 - Parque Patricios,-34.6401,-58.4064,Iguazu & Uspallata,24,0
43,334 - CENTRO DE EXPOSICIONES,-34.584,-58.3899,2133 Figueroa Alcorta,27,0
61,098 - BENITO JUAREZ,-34.6189,-58.5052, Benito Juarez 2231,12,0
153,153 - JUAN MANUEL DE BLANES,-34.631,-58.3629,Av. Almirante Brown 653,19,0
168,168 - Estados Unidos,-34.6186,-58.3812,Estados Unidos & Lima,20,0
169,169 - FACULTAD DE PSICOLOGIA,-34.6131,-58.415,Av. Hipólito Yrigoyen 3417,19,0
197,197 - PLAZA CIUDAD DE UDINE,-34.621,-58.493,Mercedes 1480,20,0
228,010 - Madero UCA,-34.6165,-58.3657,"1600 Moreau De Justo, Alicia Av.",16,0
385,268 - Plaza Aristóbulo Del Valle,-34.6062,-58.4931,Campana & Marcos Sastre  ,15,0
444,061 - Ministerio de Economia,-34.6089,-58.3707,"Balcarce e Yrigoyen, Hipolito Av.",24,0
458,219 - Parque Chacabuco II,-34.6364,-58.444,AV. ASAMBLEA 1400,27,0
538,047 - PARQUE DE LA INNOVACIÓN,-34.5451,-58.4514,Av. G. Udaondo 1146,16,0
2,002 - Retiro I,-34.5924,-58.3747,AV. Dr. José María Ramos Mejía 1300,40,0
21,021 - Parque Patricios,-34.6401,-58.4064,Iguazu & Uspallata,24,0
43,334 - CENTRO DE EXPOSICIONES,-34.584,-58.3899,2133 Figueroa Alcorta,27,0
61,098 - BENITO JUAREZ,-34.6189,-58.5052, Benito Juarez 2231,12,0
153,153 - JUAN MANUEL DE BLANES,-34.631,-58.3629,Av. Almirante Brown 653,19,0
168,168 - Estados Unidos,-34.6186,-58.3812,Estados Unidos & Lima,20,0
169,169 - FACULTAD DE PSICOLOGIA,-34.6131,-58.415,Av. Hipólito Yrigoyen 3417,19,0
197,197 - PLAZA CIUDAD DE UDINE,-34.621,-58.493,Mercedes 1480,20,0
228,010 - Madero UCA,-34.6165,-58.3657,"1600 Moreau De Justo, Alicia Av.",16,0
385,268 - Plaza Aristóbulo Del Valle,-34.6062,-58.4931,Campana & Marcos Sastre  ,15,0
444,061 - Ministerio de Economia,-34.6089,-58.3707,"Balcarce e Yrigoyen, Hipolito Av.",24,0
458,219 - Parque Chacabuco II,-34.6364,-58.444,AV. ASAMBLEA 1400,27,0
538,047 - PARQUE DE LA INNOVACIÓN,-34.5451,-58.4514,Av. G. Udaondo 1146,16,0
2,002 - Retiro I,-34.5924,-58.3747,AV. Dr. José María Ramos Mejía 1300,40,0
21,021 - Parque Patricios,-34.6401,-58.4064,Iguazu & Uspallata,24,0
43,334 - CENTRO DE EXPOSICIONES,-34.584,-58.3899,2133 Figueroa Alcorta,27,0
61,098 - BENITO JUAREZ,-34.6189,-58.5052, Benito Juarez 2231,12,0
153,153 - JUAN MANUEL DE BLANES,-34.631,-58.3629,Av. Almirante Brown 653,19,0
168,168 - Estados Unidos,-34.6186,-58.3812,Estados Unidos & Lima,20,0
169,169 - FACULTAD DE PSICOLOGIA,-34.6131,-58.415,Av. Hipólito Yrigoyen 3417,19,0
197,197 - PLAZA CIUDAD DE UDINE,-34.621,-58.493,Mercedes 1480,20,0
228,010 - Madero UCA,-34.6165,-58.3657,"1600 Moreau De Justo, Alicia Av.",16,0
385,268 - Plaza Aristóbulo Del Valle,-34.6062,-58.4931,Campana & Marcos Sastre  ,15,0
444,061 - Ministerio de Economia,-34.6089,-58.3707,"Balcarce e Yrigoyen, Hipolito Av.",24,0
458,219 - Parque Chacabuco II,-34.6364,-58.444,AV. ASAMBLEA 1400,27,0
538,047 - PARQUE DE LA INNOVACIÓN,-34.5451,-58.4514,Av. G. Udaondo 1146,16,0
2,002 - Retiro I,-34.5924,-58.3747,AV. Dr. José María Ramos Mejía 1300,40,0
21,021 - Parque Patricios,-34.6401,-58.4064,Iguazu & Uspallata,24,0
43,334 - CENTRO DE EXPOSICIONES,-34.584,-58.3899,2133 Figueroa Alcorta,27,0
61,098 - BENITO JUAREZ,-34.6189,-58.5052, Benito Juarez 2231,12,0
153,153 - JUAN MANUEL DE BLANES,-34.631,-58.3629,Av. Almirante Brown 653,19,0
168,168 - Estados Unidos,-34.6186,-58.3812,Estados Unidos & Lima,20,0
169,169 - FACULTAD DE PSICOLOGIA,-34.6131,-58.415,Av. Hipólito Yrigoyen 3417,19,0
197,197 - PLAZA CIUDAD DE UDINE,-34.621,-58.493,Mercedes 1480,20,0
228,010 - Madero UCA,-34.6165,-58.3657,"1600 Moreau De Justo, Alicia Av.",16,0
385,268 - Plaza Aristóbulo Del Valle,-34.6062,-58.4931,Campana & Marcos Sastre  ,15,0
444,061 - Ministerio de Economia,-34.6089,-58.3707,"Balcarce e Yrigoyen, Hipolito Av.",24,0
458,219 - Parque Chacabuco II,-34.6364,-58.444,AV. ASAMBLEA 1400,27,0
538,047 - PARQUE DE LA INNOVACIÓN,-34.5451,-58.4514,Av. G. Udaondo 1146,16,0
2,002 - Retiro I,-34.5924,-58.3747,AV. Dr. José María Ramos Mejía 1300,40,0
21,021 - Parque Patricios,-34.6401,-58.4064,Iguazu & Uspallata,24,0
43,334 - CENTRO DE EXPOSICIONES,-34.584,-58.3899,2133 Figueroa Alcorta,27,0
61,098 - BENITO JUAREZ,-34.6189,-58.5052, Benito Juarez 2231,12,0
153,153 - JUAN MANUEL DE BLANES,-34.631,-58.3629,Av. Almirante Brown 653,19,0
168,168 - Estados Unidos,-34.6186,-58.3812,Estados Unidos & Lima,20,0
169,169 - FACULTAD DE PSICOLOGIA,-34.6131,-58.415,Av. Hipólito Yrigoyen 3417,19,0
197,197 - PLAZA CIUDAD DE UDINE,-34.621,-58.493,Mercedes 1480,20,0
228,010 - Madero UCA,-34.6165,-58.3657,"1600 Moreau De Justo, Alicia Av.",16,0
385,268 - Plaza Aristóbulo Del Valle,-34.6062,-58.4931,Campana & Marcos Sastre  ,15,0
444,061 - Ministerio de Economia,-34.6089,-58.3707,"Balcarce e Yrigoyen, Hipolito Av.",24,0
458,219 - Parque Chacabuco II,-34.6364,-58.444,AV. ASAMBLEA 1400,27,0
538,047 - PARQUE DE LA INNOVACIÓN,-34.5451,-58.4514,Av. G. Udaondo 1146,16,0
2,002 - Retiro I,-34.5924,-58.3747,AV. Dr. José María Ramos Mejía 1300,40,0
21,021 - Parque Patricios,-34.6401,-58.4064,Iguazu & Uspallata,24,0
43,334 - CENTRO DE EXPOSICIONES,-34.584,-58.3899,2133 Figueroa Alcorta,27,0
61,098 - BENITO JUAREZ,-34.6189,-58.5052, Benito Juarez 2231,12,0
153,153 - JUAN MANUEL DE BLANES,-34.631,-58.3629,Av. Almirante Brown 653,19,0
168,168 - Estados Unidos,-34.6186,-58.3812,Estados Unidos & Lima,20,0
169,169 - FACULTAD DE PSICOLOGIA,-34.6131,-58.415,Av. Hipólito Yrigoyen 3417,19,0
197,197 - PLAZA CIUDAD DE UDINE,-34.621,-58.493,Mercedes 1480,20,0
228,010 - Madero UCA,-34.6165,-58.3657,"1600 Moreau De Justo, Alicia Av.",16,0
385,268 - Plaza Aristóbulo Del Valle,-34.6062,-58.4931,Campana & Marcos Sastre  ,15,0
444,061 - Ministerio de Economia,-34.6089,-58.3707,"Balcarce e Yrigoyen, Hipolito Av.",24,0
458,219 - Parque Chacabuco II,-34.6364,-58.444,AV. ASAMBLEA 1400,27,0
538,047 - PARQUE DE LA INNOVACIÓN,-34.5451,-58.4514,Av. G. Udaondo 1146,16,0
2,002 - Retiro I,-34.5924,-58.3747,AV. Dr. José María Ramos Mejía 1300,40,0
21,021 - Parque Patricios,-34.6401,-58.4064,Iguazu & Uspallata,24,0
43,334 - CENTRO DE EXPOSICIONES,-34.584,-58.3899,2133 Figueroa Alcorta,27,0
61,098 - BENITO JUAREZ,-34.6189,-58.5052, Benito Juarez 2231,12,0
153,153 - JUAN MANUEL DE BLANES,-34.631,-58.3629,Av. Almirante Brown 653,19,0
168,168 - Estados Unidos,-34.6186,-58.3812,Estados Unidos & Lima,20,0
169,169 - FACULTAD DE PSICOLOGIA,-34.6131,-58.415,Av. Hipólito Yrigoyen 3417,19,0
197,197 - PLAZA CIUDAD DE UDINE,-34.621,-58.493,Mercedes 1480,20,0
228,010 - Madero UCA,-34.6165,-58.3657,"1600 Moreau De Justo, Alicia Av.",16,0
385,268 - Plaza Aristóbulo Del Valle,-34.6062,-58.4931,Campana & Marcos Sastre  ,15,0
444,061 - Ministerio de Economia,-34.6089,-58.3707,"Balcarce e Yrigoyen, Hipolito Av.",24,0
458,219 - Parque Chacabuco II,-34.6364,-58.444,AV. ASAMBLEA 1400,27,0
538,047 - PARQUE DE LA INNOVACIÓN,-34.5451,-58.4514,Av. G. Udaondo 1146,16,0
2,002 - Retiro I,-34.5924,-58.3747,AV. Dr. José María Ramos Mejía 1300,40,0
21,021 - Parque Patricios,-34.6401,-58.4064,Iguazu & Uspallata,24,0
43,334 - CENTRO DE EXPOSICIONES,-34.584,-58.3899,2133 Figueroa Alcorta,27,0
61,098 - BENITO JUAREZ,-34.6189,-58.5052, Benito Juarez 2231,12,0
153,153 - JUAN MANUEL DE BLANES,-34.631,-58.3629,Av. Almirante Brown 653,19,0
168,168 - Estados Unidos,-34.6186,-58.3812,Estados Unidos & Lima,20,0
169,169 - FACULTAD DE PSICOLOGIA,-34.6131,-58.415,Av. Hipólito Yrigoyen 3417,19,0
197,197 - PLAZA CIUDAD DE UDINE,-34.621,-58.493,Mercedes 1480,20,0
228,010 - Madero UCA,-34.6165,-58.3657,"1600 Moreau De Justo, Alicia Av.",16,0
385,268 - Plaza Aristóbulo Del Valle,-34.6062,-58.4931,Campana & Marcos Sastre  ,15,0
444,061 - Ministerio de Economia,-34.6089,-58.3707,"Balcarce e Yrigoyen, Hipolito Av.",24,0
458,219 - Parque Chacabuco II,-34.6364,-58.444,AV. ASAMBLEA 1400,27,0
538,047 - PARQUE DE LA INNOVACIÓN,-34.5451,-58.4514,Av. G. Udaondo 1146,16,0
2,002 - Retiro I,-34.5924,-58.3747,AV. Dr. José María Ramos Mejía 1300,40,0
21,021 - Parque Patricios,-34.6401,-58.4064,Iguazu & Uspallata,24,0
43,334 - CENTRO DE EXPOSICIONES,-34.584,-58.3899,2133 Figueroa Alcorta,27,0
61,098 - BENITO JUAREZ,-34.6189,-58.5052, Benito Juarez 2231,12,0
153,153 - JUAN MANUEL DE BLANES,-34.631,-58.3629,Av. Almirante Brown 653,19,0
168,168 - Estados Unidos,-34.6186,-58.3812,Estados Unidos & Lima,20,0
169,169 - FACULTAD DE PSICOLOGIA,-34.6131,-58.415,Av. Hipólito Yrigoyen 3417,19,0
197,197 - PLAZA CIUDAD DE UDINE,-34.621,-58.493,Mercedes 1480,20,0
228,010 - Madero UCA,-34.6165,-58.3657,"1600 Moreau De Justo, Alicia Av.",16,0
385,268 - Plaza Aristóbulo Del Valle,-34.6062,-58.4931,Campana & Marcos Sastre  ,15,0
444,061 - Ministerio de Economia,-34.6089,-58.3707,"Balcarce e Yrigoyen, Hipolito Av.",24,0
458,219 - Parque Chacabuco II,-34.6364,-58.444,AV. ASAMBLEA 1400,27,0
538,047 - PARQUE DE LA INNOVACIÓN,-34.5451,-58.4514,Av. G. Udaondo 1146,16,0
2,002 - Retiro I,-34.5924,-58.3747,AV. Dr. José María Ramos Mejía 1300,40,0
21,021 - Parque Patricios,-34.6401,-58.4064,Iguazu & Uspallata,24,0
43,334 - CENTRO DE EXPOSICIONES,-34.584,-58.3899,2133 Figueroa Alcorta,27,0
61,098 - BENITO JUAREZ,-34.6189,-58.5052, Benito Juarez 2231,12,0
153,153 - JUAN MANUEL DE BLANES,-34.631,-58.3629,Av. Almirante Brown 653,19,0
168,168 - Estados Unidos,-34.6186,-58.3812,Estados Unidos & Lima,20,0
169,169 - FACULTAD DE PSICOLOGIA,-34.6131,-58.415,Av. Hipólito Yrigoyen 3417,19,0
197,197 - PLAZA CIUDAD DE UDINE,-34.621,-58.493,Mercedes 1480,20,0
228,010 - Madero UCA,-34.6165,-58.3657,"1600 Moreau De Justo, Alicia Av.",16,0
385,268 - Plaza Aristóbulo Del Valle,-34.6062,-58.4931,Campana & Marcos Sastre  ,15,0
444,061 - Ministerio de Economia,-34.6089,-58.3707,"Balcarce e Yrigoyen, Hipolito Av.",24,0
458,219 - Parque Chacabuco II,-34.6364,-58.444,AV. ASAMBLEA 1400,27,0
538,047 - PARQUE DE LA INNOVACIÓN,-34.5451,-58.4514,Av. G. Udaondo 1146,16,0
2,002 - Retiro I,-34.5924,-58.3747,AV. Dr. José María Ramos Mejía 1300,40,0
21,021 - Parque Patricios,-34.6401,-58.4064,Iguazu & Uspallata,24,0
43,334 - CENTRO DE EXPOSICIONES,-34.584,-58.3899,2133 Figueroa Alcorta,27,0
61,098 - BENITO JUAREZ,-34.6189,-58.5052, Benito Juarez 2231,12,0
153,153 - JUAN MANUEL DE BLANES,-34.631,-58.3629,Av. Almirante Brown 653,19,0
168,168 - Estados Unidos,-34.6186,-58.3812,Estados Unidos & Lima,20,0
169,169 - FACULTAD DE PSICOLOGIA,-34.6131,-58.415,Av. Hipólito Yrigoyen 3417,19,0
197,197 - PLAZA CIUDAD DE UDINE,-34.621,-58.493,Mercedes 1480,20,0
228,010 - Madero UCA,-34.6165,-58.3657,"1600 Moreau De Justo, Alicia Av.",16,0
385,268 - Plaza Aristóbulo Del Valle,-34.6062,-58.4931,Campana & Marcos Sastre  ,15,0
444,061 - Ministerio de Economia,-34.6089,-58.3707,"Balcarce e Yrigoyen, Hipolito Av.",24,0
458,219 - Parque Chacabuco II,-34.6364,-58.444,AV. ASAMBLEA 1400,27,0
538,047 - PARQUE DE LA INNOVACIÓN,-34.5451,-58.4514,Av. G. Udaondo 1146,16,0
2,002 - Retiro I,-34.5924,-58.3747,AV. Dr. José María Ramos Mejía 1300,40,1
21,021 - Parque Patricios,-34.6401,-58.4064,Iguazu & Uspallata,24,1
43,334 - CENTRO DE EXPOSICIONES,-34.584,-58.3899,2133 Figueroa Alcorta,27,1
61,098 - BENITO JUAREZ,-34.6189,-58.5052, Benito Juarez 2231,12,1
153,153 - JUAN MANUEL DE BLANES,-34.631,-58.3629,Av. Almirante Brown 653,19,1
168,168 - Estados Unidos,-34.6186,-58.3812,Estados Unidos & Lima,20,1
169,169 - FACULTAD DE PSICOLOGIA,-34.6131,-58.415,Av. Hipólito Yrigoyen 3417,19,1
197,197 - PLAZA CIUDAD DE UDINE,-34.621,-58.493,Mercedes 1480,20,1
228,010 - Madero UCA,-34.6165,-58.3657,"1600 Moreau De Justo, Alicia Av.",16,1
385,268 - Plaza Aristóbulo Del Valle,-34.6062,-58.4931,Campana & Marcos Sastre  ,15,1
444,061 - Ministerio de Economia,-34.6089,-58.3707,"Balcarce e Yrigoyen, Hipolito Av.",24,1
458,219 - Parque Chacabuco II,-34.6364,-58.444,AV. ASAMBLEA 1400,27,1
538,047 - PARQUE DE LA INNOVACIÓN,-34.5451,-58.4514,Av. G. Udaondo 1146,16,1
